CUTE-1 (CO-55)          
1 27844U 03031E   26140.99152270  .00000169  00000+0  92344-4 0  9991
2 27844  98.6743 149.8926 0008293 263.7323  96.2911 14.24316869187807
CUBESAT XI-IV (CO-57)   
1 27848U 03031J   26140.96636525  .00000143  00000+0  81781-4 0  9997
2 27848  98.6774 149.6022 0008231 285.2737  74.7531 14.23604415187502
CUBESAT XI-V            
1 28895U 05043F   26140.95153706  .00000799  00000+0  13401-3 0  9999
2 28895  98.2956 296.0075 0012825 293.8253  66.1609 14.72548922 97741
CUTE-1.7+APD II (CO-65) 
1 32785U 08021C   26141.19962214  .00003174  00000+0  20391-3 0  9996
2 32785  97.8273 122.0660 0010709 115.6662 244.5673 15.09161323981127
CANX-2                  
1 32790U 08021H   26141.30379500  .00002533  00000+0  18094-3 0  9990
2 32790  97.8621 120.5667 0011584 129.7813 230.4435 15.05391524980769
SEEDS II (CO-66)        
1 32791U 08021J   26140.96838990  .00011601  00000+0  38132-3 0  9996
2 32791  97.7528 137.5897 0004651  68.4532 291.7203 15.31710918983129
SWISSCUBE               
1 35932U 09051B   26141.21168286  .00000644  00000+0  13700-3 0  9992
2 35932  98.4053  48.6290 0005686 305.3397  54.7272 14.62421846885216
BEESAT-1                
1 35933U 09051C   26140.45415592  .00000522  00000+0  11466-3 0  9995
2 35933  98.3982  47.5514 0004510 327.5835  32.5088 14.61668848885136
ITUPSAT1                
1 35935U 09051E   26141.17447264  .00000492  00000+0  11173-3 0  9999
2 35935  98.4067  47.5032 0006862 332.8166  27.2673 14.60394013884797
TISAT 1                 
1 36799U 10035E   26140.53828391  .00014056  00000+0  47855-3 0  9992
2 36799  98.0706  84.6627 0002805  39.3668 320.7774 15.30538753863477
AEROCUBE 4.5A           
1 38767U 12048K   26141.25436939  .00149660  00000+0  77915-3 0  9998
2 38767  64.6283 124.2160 0018264 215.5677 144.4262 15.80022698368384
STRAND-1                
1 39090U 13009E   26140.97298443  .00000153  00000+0  65920-4 0  9997
2 39090  98.3916 321.8785 0007732 318.8197  41.2406 14.37145084693157
BRITE-AUSTRIA           
1 39091U 13009F   26141.25277296  .00000105  00000+0  50346-4 0  9996
2 39091  98.3988 321.3563 0009425 326.6105  33.4486 14.36530010693183
NEE-01 PEGASO           
1 39151U 13018B   26140.32904150  .00001560  00000+0  15395-3 0  9996
2 39151  98.1188 283.5678 0011376 253.7412 106.2555 14.93503212706543
POPACS 2                
1 39269U 13055E   26141.06157980  .00009278  00000+0  15949-3 0  9999
2 39269  80.9911 175.2306 0418369 281.0443  74.3998 14.90565726659179
POPACS 3                
1 39270U 13055F   26140.76430709  .00011944  00000+0  28350-3 0  9993
2 39270  81.0017 258.9012 0554661 153.3897 209.6959 14.55431784634566
ZACUBE-1 (TSHEPISOSAT)  
1 39417U 13066B   26141.14341431  .00003037  00000+0  23907-3 0  9991
2 39417  97.8121 103.3339 0040777 343.5805  16.4095 15.00956415676672
WNISAT-1                
1 39423U 13066H   26140.96648866  .00000295  00000+0  62994-4 0  9992
2 39423  97.7170 292.0599 0162140 318.0202  40.8663 14.58023337662760
TRITON-1                
1 39427U 13066M   26141.28219652  .00001629  00000+0  20061-3 0  9999
2 39427  97.8263  51.7021 0089377 323.0352  36.4723 14.81576961670107
GOMX-1                  
1 39430U 13066Q   26141.28776623  .00001337  00000+0  20673-3 0  9994
2 39430  97.6494 343.4472 0129115 163.2475 197.3058 14.69338770665967
CUBEBUG-2 (LO-74)       
1 39440U 13066AA  26141.13256496  .00002726  00000+0  25572-3 0  9996
2 39440  97.8896  90.0048 0059422 116.3635 244.3702 14.93523288672953
NEE-02 KRYSAOR          
1 39441U 13066AB  26140.34243893  .00001052  00000+0  12059-3 0  9993
2 39441  97.8886  79.7609 0066681 159.7585 200.6298 14.86498349672068
FUNCUBE-1 (AO-73)       
1 39444U 13066AE  26140.67569056  .00005251  00000+0  33102-3 0  9991
2 39444  97.8265 111.5579 0034836 298.9376  60.8360 15.09093359675511
UWE-3                   
1 39446U 13066AG  26141.14316973  .00003009  00000+0  26182-3 0  9993
2 39446  97.8680  97.0433 0050397  51.1613 309.4090 14.96761748673535
BRITE-CA1 (TORONTO)     
1 40020U 14033L   26141.26742349  .00000416  00000+0  70355-4 0  9992
2 40020  97.9703 270.6980 0078656   4.1461 356.0381 14.72635205638258
DUCHIFAT-1              
1 40021U 14033M   26141.11291918  .00056933  00000+0  72160-3 0  9998
2 40021  98.0488 196.5891 0006283 165.9134 194.2297 15.59269252651522
NANOSATC-BR1            
1 40024U 14033Q   26141.01611186  .00011267  00000+0  38486-3 0  9997
2 40024  98.0739 171.0150 0001664 270.4797  89.6251 15.30494560649823
QB50P1                  
1 40025U 14033R   26140.99261787  .00005436  00000+0  27261-3 0  9992
2 40025  98.0976 150.2418 0007570 329.2235  30.8552 15.17785775648901
QB50P2                  
1 40032U 14033Y   26141.28406362  .00004693  00000+0  25695-3 0  9996
2 40032  98.0755 136.4993 0005677 266.1096  93.9485 15.14768104648592
PERSEUS-M2              
1 40037U 14033AD  26141.23224147  .00000959  00000+0  92203-4 0  9996
2 40037  97.9967  91.2297 0013116  35.2384 324.9701 14.95419036646756
